ONEWEB-0385             
1 49311U 21090AJ  23313.46637163  .00000450  00000+0  10751-2 0  9992
2 49311  87.9165 103.7076 0001893  97.4377 262.6971 13.20772166104304
ONEWEB-0386             
1 49312U 21090AK  23313.48321177  .00006088  00000+0  14938-1 0  9993
2 49312  87.9157 103.7136 0002091  86.8500 273.2873 13.20740811104327
ONEWEB-0387             
1 49313U 21090AL  23313.46847743 -.00000215  00000+0 -56000-3 0  9990
2 49313  87.9171 103.7654 0001742 101.6303 258.5026 13.20773852104325
ONEWEB-0388             
1 49314U 21090AM  23313.58943747 -.00000012  00000+0 -63318-4 0  9991
2 49314  87.9173 134.1846 0001614  82.0574 278.0742 13.19732496101033
ONEWEB-0389             
1 50469U 21132A   23313.17344080  .00000048  00000+0  90390-4 0  9998
2 50469  87.9252 194.8884 0001894  89.7731 270.3617 13.17647497 92846
ONEWEB-0390             
1 50470U 21132B   23313.70709015  .00000216  00000+0  52224-3 0  9992
2 50470  87.9255 194.7943 0001762  84.8161 275.3172 13.17655264 94207
ONEWEB-0391             
1 50471U 21132C   23313.17765252  .00000109  00000+0  24823-3 0  9994
2 50471  87.9251 194.8653 0001794  82.4574 277.6761 13.17650317 92841
ONEWEB-0392             
1 50472U 21132D   23313.58687350 -.00000883  00000+0 -23074-2 0  9999
2 50472  87.9223 194.8183 0002514  82.3269 277.8148 13.17657969 92931
